[{"OBJECT_NAME":"TRANSPORTER-10 OBJECT AG","OBJECT_ID":"2024-043AG","EPOCH":"2026-03-09T22:12:45.387648","MEAN_MOTION":15.30759727,"ECCENTRICITY":0.00093005,"INCLINATION":97.5471,"RA_OF_ASC_NODE":205.7101,"ARG_OF_PERICENTER":226.5958,"MEAN_ANOMALY":133.4509,"EPHEMERIS_TYPE":0,"CLASSIFICATION_TYPE":"U","NORAD_CAT_ID":59128,"ELEMENT_SET_NO":999,"REV_AT_EPOCH":11192,"BSTAR":0.00032170115,"MEAN_MOTION_DOT":9.498e-5,"MEAN_MOTION_DDOT":0},{"OBJECT_NAME":"STARLINK-34115","OBJECT_ID":"2025-099W","EPOCH":"2026-03-09T07:59:27.622176","MEAN_MOTION":15.27578809,"ECCENTRICITY":0.00017804,"INCLINATION":43.0002,"RA_OF_ASC_NODE":174.6067,"ARG_OF_PERICENTER":253.7711,"MEAN_ANOMALY":106.2945,"EPHEMERIS_TYPE":0,"CLASSIFICATION_TYPE":"U","NORAD_CAT_ID":63972,"ELEMENT_SET_NO":999,"REV_AT_EPOCH":4732,"BSTAR":0.0010235909,"MEAN_MOTION_DOT":0.00028011,"MEAN_MOTION_DDOT":0}]
